{
  "type": "FeatureCollection",
  "features": [
    {
      "type": "Feature",
      "properties": {
        "norad_id": 34765,
        "name": "IRIDIUM 33 DEB",
        "group": "iridium-33-debris",
        "lat": -74.40925606929842,
        "lon": 20.89633976120216,
        "alt_km": 759.3919171629695,
        "timestamp": "2025-12-09T11:33:55.186034+00:00",
        "meta_object_name": "IRIDIUM 33 DEB",
        "meta_object_id": "1997-051LJ",
        "meta_epoch": "2025-12-09T03:49:56.530848",
        "meta_mean_motion": 14.40450451,
        "meta_eccentricity": 0.0015089,
        "meta_inclination": 86.3395,
        "meta_ra_of_asc_node": 34.2977,
        "meta_arg_of_pericenter": 223.9974,
        "meta_mean_anomaly": 191.2679,
        "meta_ephemeris_type": 0,
        "meta_classification_type": "U",
        "meta_norad_cat_id": 34765,
        "meta_element_set_no": 999,
        "meta_rev_at_epoch": 87562,
        "meta_bstar": 0.0005453,
        "meta_mean_motion_dot": 1.754e-05,
        "meta_mean_motion_ddot": 0,
        "tle_line1": "1 34765U 97051LJ  25343.15968207  .00001754  00000+0  54530-3 0  9998",
        "tle_line2": "2 34765  86.3395  34.2977 0015089 223.9974 191.2679 14.40450451875623"
      },
      "geometry": {
        "type": "Point",
        "coordinates": [
          20.89633976120216,
          -74.40925606929842
        ]
      }
    },
    {
      "type": "Feature",
      "properties": {
        "norad_id": 34833,
        "name": "IRIDIUM 33 DEB",
        "group": "iridium-33-debris",
        "lat": -71.02185228418891,
        "lon": -117.03320272707928,
        "alt_km": 737.7080979939892,
        "timestamp": "2025-12-09T11:33:55.186045+00:00",
        "meta_object_name": "IRIDIUM 33 DEB",
        "meta_object_id": "1997-051MH",
        "meta_epoch": "2025-12-08T23:05:30.624000",
        "meta_mean_motion": 14.52340572,
        "meta_eccentricity": 0.0021784,
        "meta_inclination": 86.3932,
        "meta_ra_of_asc_node": 52.6222,
        "meta_arg_of_pericenter": 110.1341,
        "meta_mean_anomaly": 305.4079,
        "meta_ephemeris_type": 0,
        "meta_classification_type": "U",
        "meta_norad_cat_id": 34833,
        "meta_element_set_no": 999,
        "meta_rev_at_epoch": 87660,
        "meta_bstar": 0.00097622,
        "meta_mean_motion_dot": 4.003e-05,
        "meta_mean_motion_ddot": 0,
        "tle_line1": "1 34833U 97051MH  25342.96216000  .00004003  00000+0  97622-3 0  9998",
        "tle_line2": "2 34833  86.3932  52.6222 0021784 110.1341 305.4079 14.52340572876604"
      },
      "geometry": {
        "type": "Point",
        "coordinates": [
          -117.03320272707928,
          -71.02185228418891
        ]
      }
    },
    {
      "type": "Feature",
      "properties": {
        "norad_id": 34870,
        "name": "IRIDIUM 33 DEB",
        "group": "iridium-33-debris",
        "lat": -57.73217458129011,
        "lon": -50.29162201104145,
        "alt_km": 651.2308027065501,
        "timestamp": "2025-12-09T11:33:55.186055+00:00",
        "meta_object_name": "IRIDIUM 33 DEB",
        "meta_object_id": "1997-051MQ",
        "meta_epoch": "2025-12-07T16:41:29.147136",
        "meta_mean_motion": 14.76272854,
        "meta_eccentricity": 0.00154972,
        "meta_inclination": 86.3098,
        "meta_ra_of_asc_node": 316.3932,
        "meta_arg_of_pericenter": 201.8058,
        "meta_mean_anomaly": 332.1989,
        "meta_ephemeris_type": 0,
        "meta_classification_type": "U",
        "meta_norad_cat_id": 34870,
        "meta_element_set_no": 999,
        "meta_rev_at_epoch": 88836,
        "meta_bstar": 0.0021061979,
        "meta_mean_motion_dot": 0.00014658,
        "meta_mean_motion_ddot": 0,
        "tle_line1": "1 34870U 97051MQ  25341.69547624  .00014658  00000+0  21062-2 0  9998",
        "tle_line2": "2 34870  86.3098 316.3932 0015497 201.8058 332.1989 14.76272854888369"
      },
      "geometry": {
        "type": "Point",
        "coordinates": [
          -50.29162201104145,
          -57.73217458129011
        ]
      }
    },
    {
      "type": "Feature",
      "properties": {
        "norad_id": 34896,
        "name": "IRIDIUM 33 DEB",
        "group": "iridium-33-debris",
        "lat": -81.07428780000356,
        "lon": 172.2727111491383,
        "alt_km": 666.7236125241616,
        "timestamp": "2025-12-09T11:33:55.186065+00:00",
        "meta_object_name": "IRIDIUM 33 DEB",
        "meta_object_id": "1997-051MY",
        "meta_epoch": "2025-12-08T06:47:45.155328",
        "meta_mean_motion": 14.66206819,
        "meta_eccentricity": 0.00239488,
        "meta_inclination": 86.3293,
        "meta_ra_of_asc_node": 328.6838,
        "meta_arg_of_pericenter": 231.0822,
        "meta_mean_anomaly": 187.3834,
        "meta_ephemeris_type": 0,
        "meta_classification_type": "U",
        "meta_norad_cat_id": 34896,
        "meta_element_set_no": 999,
        "meta_rev_at_epoch": 87554,
        "meta_bstar": 0.001338628,
        "meta_mean_motion_dot": 7.421e-05,
        "meta_mean_motion_ddot": 0,
        "tle_line1": "1 34896U 97051MY  25342.28316152  .00007421  00000+0  13386-2 0  9992",
        "tle_line2": "2 34896  86.3293 328.6838 0023948 231.0822 187.3834 14.66206819875541"
      },
      "geometry": {
        "type": "Point",
        "coordinates": [
          172.2727111491383,
          -81.07428780000356
        ]
      }
    },
    {
      "type": "Feature",
      "properties": {
        "norad_id": 34926,
        "name": "IRIDIUM 33 DEB",
        "group": "iridium-33-debris",
        "lat": 51.590608621291615,
        "lon": -175.11204221214928,
        "alt_km": 761.1323586207964,
        "timestamp": "2025-12-09T11:33:55.186075+00:00",
        "meta_object_name": "IRIDIUM 33 DEB",
        "meta_object_id": "1997-051NF",
        "meta_epoch": "2025-12-09T03:00:38.009088",
        "meta_mean_motion": 14.54144924,
        "meta_eccentricity": 0.0076003,
        "meta_inclination": 86.1319,
        "meta_ra_of_asc_node": 9.9484,
        "meta_arg_of_pericenter": 305.1684,
        "meta_mean_anomaly": 118.2748,
        "meta_ephemeris_type": 0,
        "meta_classification_type": "U",
        "meta_norad_cat_id": 34926,
        "meta_element_set_no": 999,
        "meta_rev_at_epoch": 86404,
        "meta_bstar": 0.0063093,
        "meta_mean_motion_dot": 0.00027819,
        "meta_mean_motion_ddot": 0,
        "tle_line1": "1 34926U 97051NF  25343.12543992  .00027819  00000+0  63093-2 0  9997",
        "tle_line2": "2 34926  86.1319   9.9484 0076003 305.1684 118.2748 14.54144924864042"
      },
      "geometry": {
        "type": "Point",
        "coordinates": [
          -175.11204221214928,
          51.590608621291615
        ]
      }
    },
    {
      "type": "Feature",
      "properties": {
        "norad_id": 34985,
        "name": "IRIDIUM 33 DEB",
        "group": "iridium-33-debris",
        "lat": 37.14301357151657,
        "lon": 61.025828529825574,
        "alt_km": 763.4781570292043,
        "timestamp": "2025-12-09T11:33:55.186086+00:00",
        "meta_object_name": "IRIDIUM 33 DEB",
        "meta_object_id": "1997-051NR",
        "meta_epoch": "2025-12-09T04:51:57.168864",
        "meta_mean_motion": 14.41984633,
        "meta_eccentricity": 0.0020369,
        "meta_inclination": 86.3692,
        "meta_ra_of_asc_node": 58.3881,
        "meta_arg_of_pericenter": 231.8923,
        "meta_mean_anomaly": 157.2184,
        "meta_ephemeris_type": 0,
        "meta_classification_type": "U",
        "meta_norad_cat_id": 34985,
        "meta_element_set_no": 999,
        "meta_rev_at_epoch": 87124,
        "meta_bstar": 0.00086961,
        "meta_mean_motion_dot": 2.876e-05,
        "meta_mean_motion_ddot": 0,
        "tle_line1": "1 34985U 97051NR  25343.20274501  .00002876  00000+0  86961-3 0  9994",
        "tle_line2": "2 34985  86.3692  58.3881 0020369 231.8923 157.2184 14.41984633871249"
      },
      "geometry": {
        "type": "Point",
        "coordinates": [
          61.025828529825574,
          37.14301357151657
        ]
      }
    },
    {
      "type": "Feature",
      "properties": {
        "norad_id": 35051,
        "name": "IRIDIUM 33 DEB",
        "group": "iridium-33-debris",
        "lat": -83.48644046126803,
        "lon": -135.45347332788404,
        "alt_km": 748.299928614183,
        "timestamp": "2025-12-09T11:33:55.186095+00:00",
        "meta_object_name": "IRIDIUM 33 DEB",
        "meta_object_id": "1997-051NX",
        "meta_epoch": "2025-12-08T19:24:58.044960",
        "meta_mean_motion": 14.47572985,
        "meta_eccentricity": 0.00105834,
        "meta_inclination": 86.3244,
        "meta_ra_of_asc_node": 10.5757,
        "meta_arg_of_pericenter": 101.6319,
        "meta_mean_anomaly": 258.6072,
        "meta_ephemeris_type": 0,
        "meta_classification_type": "U",
        "meta_norad_cat_id": 35051,
        "meta_element_set_no": 999,
        "meta_rev_at_epoch": 86939,
        "meta_bstar": 0.001137816,
        "meta_mean_motion_dot": 4.208e-05,
        "meta_mean_motion_ddot": 0,
        "tle_line1": "1 35051U 97051NX  25342.80900515  .00004208  00000+0  11378-2 0  9995",
        "tle_line2": "2 35051  86.3244  10.5757 0010583 101.6319 258.6072 14.47572985869393"
      },
      "geometry": {
        "type": "Point",
        "coordinates": [
          -135.45347332788404,
          -83.48644046126803
        ]
      }
    }
  ]
}